{
  "type": "FeatureCollection",
  "features": [
    {
      "type": "Feature",
      "properties": {
        "norad_id": 44793,
        "name": "BEIDOU-3 M22 (C44)",
        "group": "beidou",
        "lat": -52.008929338535836,
        "lon": -165.5570549483765,
        "alt_km": 21543.059118895264,
        "timestamp": "2025-12-06T16:45:42.987512+00:00",
        "meta_object_name": "BEIDOU-3 M22 (C44)",
        "meta_object_id": "2019-078A",
        "meta_epoch": "2025-12-05T05:48:12.053952",
        "meta_mean_motion": 1.86231816,
        "meta_eccentricity": 0.00057288,
        "meta_inclination": 54.1154,
        "meta_ra_of_asc_node": 306.6493,
        "meta_arg_of_pericenter": 22.8633,
        "meta_mean_anomaly": 337.1445,
        "meta_ephemeris_type": 0,
        "meta_classification_type": "U",
        "meta_norad_cat_id": 44793,
        "meta_element_set_no": 999,
        "meta_rev_at_epoch": 4103,
        "meta_bstar": 0,
        "meta_mean_motion_dot": -6.9e-07,
        "meta_mean_motion_ddot": 0,
        "tle_line1": "1 44793U 19078A   25339.24180618 -.00000069  00000+0  00000+0 0  9998",
        "tle_line2": "2 44793  54.1154 306.6493 0005728  22.8633 337.1445  1.86231816 41037"
      },
      "geometry": {
        "type": "Point",
        "coordinates": [
          -165.5570549483765,
          -52.008929338535836
        ]
      }
    },
    {
      "type": "Feature",
      "properties": {
        "norad_id": 44794,
        "name": "BEIDOU-3 M21 (C43)",
        "group": "beidou",
        "lat": 12.536111117178022,
        "lon": 117.2736058722321,
        "alt_km": 21536.880003321272,
        "timestamp": "2025-12-06T16:45:42.987523+00:00",
        "meta_object_name": "BEIDOU-3 M21 (C43)",
        "meta_object_id": "2019-078B",
        "meta_epoch": "2025-12-05T21:59:25.852416",
        "meta_mean_motion": 1.86227538,
        "meta_eccentricity": 0.00039607,
        "meta_inclination": 54.088,
        "meta_ra_of_asc_node": 306.5908,
        "meta_arg_of_pericenter": 10.7864,
        "meta_mean_anomaly": 349.2048,
        "meta_ephemeris_type": 0,
        "meta_classification_type": "U",
        "meta_norad_cat_id": 44794,
        "meta_element_set_no": 999,
        "meta_rev_at_epoch": 4105,
        "meta_bstar": 0,
        "meta_mean_motion_dot": -6.9e-07,
        "meta_mean_motion_ddot": 0,
        "tle_line1": "1 44794U 19078B   25339.91627144 -.00000069  00000+0  00000+0 0  9993",
        "tle_line2": "2 44794  54.0880 306.5908 0003960  10.7864 349.2048  1.86227538 41052"
      },
      "geometry": {
        "type": "Point",
        "coordinates": [
          117.2736058722321,
          12.536111117178022
        ]
      }
    },
    {
      "type": "Feature",
      "properties": {
        "norad_id": 44864,
        "name": "BEIDOU-3 M19 (C41)",
        "group": "beidou",
        "lat": 0.20832454575292023,
        "lon": 69.30921691437209,
        "alt_km": 21515.859816823355,
        "timestamp": "2025-12-06T16:45:42.987535+00:00",
        "meta_object_name": "BEIDOU-3 M19 (C41)",
        "meta_object_id": "2019-090A",
        "meta_epoch": "2025-12-02T22:27:31.551840",
        "meta_mean_motion": 1.86231053,
        "meta_eccentricity": 0.00175607,
        "meta_inclination": 56.3847,
        "meta_ra_of_asc_node": 69.2872,
        "meta_arg_of_pericenter": 284.9296,
        "meta_mean_anomaly": 72.494,
        "meta_ephemeris_type": 0,
        "meta_classification_type": "U",
        "meta_norad_cat_id": 44864,
        "meta_element_set_no": 999,
        "meta_rev_at_epoch": 4057,
        "meta_bstar": 0,
        "meta_mean_motion_dot": -4.9e-07,
        "meta_mean_motion_ddot": 0,
        "tle_line1": "1 44864U 19090A   25336.93578185 -.00000049  00000+0  00000+0 0  9992",
        "tle_line2": "2 44864  56.3847  69.2872 0017560 284.9296  72.4940  1.86231053 40575"
      },
      "geometry": {
        "type": "Point",
        "coordinates": [
          69.30921691437209,
          0.20832454575292023
        ]
      }
    },
    {
      "type": "Feature",
      "properties": {
        "norad_id": 44865,
        "name": "BEIDOU-3 M20 (C42)",
        "group": "beidou",
        "lat": 56.41326258849107,
        "lon": 158.79770132289335,
        "alt_km": 21557.76123336544,
        "timestamp": "2025-12-06T16:45:42.987546+00:00",
        "meta_object_name": "BEIDOU-3 M20 (C42)",
        "meta_object_id": "2019-090B",
        "meta_epoch": "2025-12-03T10:37:23.867040",
        "meta_mean_motion": 1.86231029,
        "meta_eccentricity": 0.00147135,
        "meta_inclination": 56.3867,
        "meta_ra_of_asc_node": 69.3045,
        "meta_arg_of_pericenter": 297.7194,
        "meta_mean_anomaly": 129.1388,
        "meta_ephemeris_type": 0,
        "meta_classification_type": "U",
        "meta_norad_cat_id": 44865,
        "meta_element_set_no": 999,
        "meta_rev_at_epoch": 4057,
        "meta_bstar": 0,
        "meta_mean_motion_dot": -5e-07,
        "meta_mean_motion_ddot": 0,
        "tle_line1": "1 44865U 19090B   25337.44263735 -.00000050  00000+0  00000+0 0  9994",
        "tle_line2": "2 44865  56.3867  69.3045 0014713 297.7194 129.1388  1.86231029 40576"
      },
      "geometry": {
        "type": "Point",
        "coordinates": [
          158.79770132289335,
          56.41326258849107
        ]
      }
    },
    {
      "type": "Feature",
      "properties": {
        "norad_id": 45344,
        "name": "BEIDOU-3 G2 (C60)",
        "group": "beidou",
        "lat": 0.17092644694135992,
        "lon": 47.15486490529588,
        "alt_km": 35791.56863680241,
        "timestamp": "2025-12-06T16:45:42.987558+00:00",
        "meta_object_name": "BEIDOU-3 G2 (C60)",
        "meta_object_id": "2020-017A",
        "meta_epoch": "2025-12-05T15:47:23.962272",
        "meta_mean_motion": 1.00262828,
        "meta_eccentricity": 0.00053913,
        "meta_inclination": 2.4835,
        "meta_ra_of_asc_node": 43.7472,
        "meta_arg_of_pericenter": 266.1366,
        "meta_mean_anomaly": 81.6514,
        "meta_ephemeris_type": 0,
        "meta_classification_type": "U",
        "meta_norad_cat_id": 45344,
        "meta_element_set_no": 999,
        "meta_rev_at_epoch": 2131,
        "meta_bstar": 0,
        "meta_mean_motion_dot": -1.29e-06,
        "meta_mean_motion_ddot": 0,
        "tle_line1": "1 45344U 20017A   25339.65791623 -.00000129  00000+0  00000+0 0  9992",
        "tle_line2": "2 45344   2.4835  43.7472 0005391 266.1366  81.6514  1.00262828 21310"
      },
      "geometry": {
        "type": "Point",
        "coordinates": [
          47.15486490529588,
          0.17092644694135992
        ]
      }
    },
    {
      "type": "Feature",
      "properties": {
        "norad_id": 45807,
        "name": "BEIDOU-3 G3 (C61)",
        "group": "beidou",
        "lat": 0.4057041768582492,
        "lon": 77.64733135891176,
        "alt_km": 35779.59079415426,
        "timestamp": "2025-12-06T16:45:42.987570+00:00",
        "meta_object_name": "BEIDOU-3 G3 (C61)",
        "meta_object_id": "2020-040A",
        "meta_epoch": "2025-12-06T00:54:51.715584",
        "meta_mean_motion": 1.00265272,
        "meta_eccentricity": 0.00051291,
        "meta_inclination": 1.9742,
        "meta_ra_of_asc_node": 66.5538,
        "meta_arg_of_pericenter": 303.673,
        "meta_mean_anomaly": 189.0335,
        "meta_ephemeris_type": 0,
        "meta_classification_type": "U",
        "meta_norad_cat_id": 45807,
        "meta_element_set_no": 999,
        "meta_rev_at_epoch": 2013,
        "meta_bstar": 0,
        "meta_mean_motion_dot": -3.45e-06,
        "meta_mean_motion_ddot": 0,
        "tle_line1": "1 45807U 20040A   25340.03809856 -.00000345  00000+0  00000+0 0  9994",
        "tle_line2": "2 45807   1.9742  66.5538 0005129 303.6730 189.0335  1.00265272 20131"
      },
      "geometry": {
        "type": "Point",
        "coordinates": [
          77.64733135891176,
          0.4057041768582492
        ]
      }
    },
    {
      "type": "Feature",
      "properties": {
        "norad_id": 56564,
        "name": "BEIDOU-3 G4 (C62)",
        "group": "beidou",
        "lat": -0.07134669387164737,
        "lon": 127.18819105448387,
        "alt_km": 35777.97607746079,
        "timestamp": "2025-12-06T16:45:42.987582+00:00",
        "meta_object_name": "BEIDOU-3 G4 (C62)",
        "meta_object_id": "2023-066A",
        "meta_epoch": "2025-12-06T05:51:56.901312",
        "meta_mean_motion": 1.00270951,
        "meta_eccentricity": 0.00031811,
        "meta_inclination": 0.8299,
        "meta_ra_of_asc_node": 301.5074,
        "meta_arg_of_pericenter": 236.7892,
        "meta_mean_anomaly": 145.0454,
        "meta_ephemeris_type": 0,
        "meta_classification_type": "U",
        "meta_norad_cat_id": 56564,
        "meta_element_set_no": 999,
        "meta_rev_at_epoch": 946,
        "meta_bstar": 0,
        "meta_mean_motion_dot": -1.02e-06,
        "meta_mean_motion_ddot": 0,
        "tle_line1": "1 56564U 23066A   25340.24440858 -.00000102  00000+0  00000+0 0  9994",
        "tle_line2": "2 56564   0.8299 301.5074 0003181 236.7892 145.0454  1.00270951  9463"
      },
      "geometry": {
        "type": "Point",
        "coordinates": [
          127.18819105448387,
          -0.07134669387164737
        ]
      }
    }
  ]
}